NORAD_CAT_ID,OBJECT_NAME,OBJECT_TYPE,EPOCH,MEAN_MOTION,ECCENTRICITY,INCLINATION,RA_OF_ASC_NODE,ARG_OF_PERICENTER,MEAN_ANOMALY,BSTAR,MEAN_MOTION_DOT,MEAN_MOTION_DDOT,TLE_LINE0,TLE_LINE1,TLE_LINE2,SEMIMAJOR_AXIS,PERIOD,APOGEE,PERIGEE,DECAYED
50808.0,STARLINK-3355,PAYLOAD,2022-04-09 20:00:01,15.47918098,0.0001607,53.2173,101.536,36.2691,58.9243,-0.01464,-0.007181,0.0,0 STARLINK-3355,1 50808U 22001F   22099.83334491 -.00718100  00000-0 -14640-1 0  9998,2 50808  53.2173 101.5360 0001607  36.2691  58.9243 15.47918098 15886,6800.954000000002,93.028,423.912,421.726,0.0
50808.0,STARLINK-3355,PAYLOAD,2022-04-09 22:00:00,15.47792876,0.0001694,53.2171,101.1382,43.3314,156.4792,-0.014794,-0.00722169,0.0,0 STARLINK-3355,1 50808U 22001F   22099.91667824 -.00722169  00000-0 -14794-1 0  9996,2 50808  53.2171 101.1382 0001694  43.3314 156.4792 15.47792876  3694,6801.321,93.036,424.338,422.034,0.0
50808.0,STARLINK-3355,PAYLOAD,2022-04-10 14:00:01,15.46774159,0.0001348,53.2173,97.965,52.9703,262.4022,-0.015368,-0.00723791,0.0,0 STARLINK-3355,1 50808U 22001F   22100.58334491 -.00723791  00000-0 -15368-1 0  9993,2 50808  53.2173  97.9650 0001348  52.9703 262.4022 15.46774159  3686,6804.307,93.097,427.089,425.255,0.0
50808.0,STARLINK-3355,PAYLOAD,2022-04-10 20:00:01,15.46388011,0.0001585,53.2174,96.7743,43.538,224.5408,-0.015419,-0.00717086,0.0,0 STARLINK-3355,1 50808U 22001F   22100.83334491 -.00717086  00000-0 -15419-1 0  9998,2 50808  53.2174  96.7743 0001585  43.5380 224.5408 15.46388011 16035,6805.44,93.12,428.383,426.226,0.0
50808.0,STARLINK-3355,PAYLOAD,2022-04-10 22:00:00,15.46260715,0.000153,53.2173,96.3778,39.3091,332.9282,-0.015516,-0.00718313,0.0,0 STARLINK-3355,1 50808U 22001F   22100.91667824 -.00718313  00000-0 -15516-1 0  9998,2 50808  53.2173  96.3778 0001530  39.3091 332.9282 15.46260715  3681,6805.813,93.128,428.72,426.637,0.0
50808.0,STARLINK-3355,PAYLOAD,2022-04-11 14:00:01,15.45242257,0.0001631,53.2172,93.2117,40.6909,83.4314,-0.016111,-0.00719971,0.0,0 STARLINK-3355,1 50808U 22001F   22101.58334491 -.00719971  00000-0 -16111-1 0  9996,2 50808  53.2172  93.2117 0001631  40.6909  83.4314 15.45242257  3682,6808.803000000001,93.189,431.779,429.5580000000001,0.0
50808.0,STARLINK-3355,PAYLOAD,2022-04-11 20:00:01,15.44858686,0.0001740999999999,53.2174,92.0239,31.7228,43.7263,-0.016293,-0.00718691,0.0,0 STARLINK-3355,1 50808U 22001F   22101.83334491 -.00718691  00000-0 -16293-1 0  9993,2 50808  53.2174  92.0239 0001741  31.7228  43.7263 15.44858686 16193,6809.93,93.212,432.981,430.61,0.0
50808.0,STARLINK-3355,PAYLOAD,2022-04-11 22:00:00,15.44733122,0.0001836,53.2174,91.6284,37.7015,141.4454,-0.016434,-0.00721581,0.0,0 STARLINK-3355,1 50808U 22001F   22101.91667824 -.00721581  00000-0 -16434-1 0  9990,2 50808  53.2174  91.6284 0001836  37.7015 141.4454 15.44733122  3677,6810.299,93.22,433.415,430.914,0.0
50808.0,STARLINK-3355,PAYLOAD,2022-04-12 14:00:01,15.43713991,0.000159,53.2173,88.4694,44.1149,243.2411,-0.01706,-0.00723262,0.0,0 STARLINK-3355,1 50808U 22001F   22102.58334491 -.00723262  00000-0 -17060-1 0  9999,2 50808  53.2173  88.4694 0001590  44.1149 243.2411 15.43713991  3699,6813.295999999999,93.282,436.245,434.078,0.0
50808.0,STARLINK-3355,PAYLOAD,2022-04-12 20:00:01,15.43329084,0.0001672,53.2173,87.2843,43.1915,194.1127,-0.017162,-0.00718519,0.0,0 STARLINK-3355,1 50808U 22001F   22102.83334491 -.00718519  00000-0 -17162-1 0  9999,2 50808  53.2173  87.2843 0001672  43.1915 194.1127 15.43329084 16343,6814.429,93.305,437.434,435.155,0.0
50808.0,STARLINK-3355,PAYLOAD,2022-04-12 22:00:00,15.43119817,0.0001744,53.2165,86.8912,38.9771,301.6061,-0.014385,-0.00598927,0.0,0 STARLINK-3355,1 50808U 22001F   22102.91667824 -.00598927  00000-0 -14385-1 0  9990,2 50808  53.2165  86.8912 0001744  38.9771 301.6061 15.43119817  3640,6815.045,93.317,438.099,435.722,0.0
50808.0,STARLINK-3355,PAYLOAD,2022-04-13 14:00:03,15.42182071,0.0001614,53.2172,83.7382,38.1913,47.0126,-0.01786,-0.0071923,0.0,0 STARLINK-3355,1 50808U 22001F   22103.58336806 -.00719230  00000-0 -17860-1 0  9990,2 50808  53.2172  83.7382 0001614  38.1913  47.0126 15.42182071  3689,6817.808000000001,93.374,440.773,438.572,0.0
50808.0,STARLINK-3355,PAYLOAD,2022-04-13 20:00:01,15.41798101,0.0001489,53.2172,82.5558,40.4397,353.2694,-0.01804,-0.00717291,0.0,0 STARLINK-3355,1 50808U 22001F   22103.83335648 -.00717291  00000-0 -18040-1 0  9997,2 50808  53.2172  82.5558 0001489  40.4397 353.2694 15.41798101 16506,6818.939,93.397,441.82,439.789,0.0
50808.0,STARLINK-3355,PAYLOAD,2022-04-13 22:00:00,15.41672536,0.0001681,53.2174,82.1624,43.015,93.4079,-0.018169,-0.00719254,0.0,0 STARLINK-3355,1 50808U 22001F   22103.91667824 -.00719254  00000-0 -18169-1 0  9993,2 50808  53.2174  82.1624 0001681  43.0150  93.4079 15.41672536  3675,6819.31,93.405,442.321,440.028,0.0
50808.0,STARLINK-3355,PAYLOAD,2022-04-14 14:00:01,15.40653794,0.0001573,53.2173,79.0178,49.7622,187.5164,-0.018876,-0.00721973,0.0,0 STARLINK-3355,1 50808U 22001F   22104.58334491 -.00721973  00000-0 -18876-1 0  9994,2 50808  53.2173  79.0178 0001573  49.7622 187.5164 15.40653794  3674,6822.316,93.467,445.254,443.107,0.0
50808.0,STARLINK-3355,PAYLOAD,2022-04-14 20:00:01,15.40270988,0.0001894,53.217,77.8383,36.5775,147.891,-0.019103,-0.00721495,0.0,0 STARLINK-3355,1 50808U 22001F   22104.83334491 -.00721495  00000-0 -19103-1 0  9995,2 50808  53.2170  77.8383 0001894  36.5775 147.8910 15.40270988 16654,6823.446,93.49,446.603,444.019,0.0
50808.0,STARLINK-3355,PAYLOAD,2022-04-14 22:00:00,15.40141715,0.0001757,53.2174,77.4456,38.7775,248.0113,-0.019064,-0.00717253,0.0,0 STARLINK-3355,1 50808U 22001F   22104.91667824 -.00717253  00000-0 -19064-1 0  9996,2 50808  53.2174  77.4456 0001757  38.7775 248.0113 15.40141715  3680,6823.828,93.498,446.892,444.494,0.0
50808.0,STARLINK-3355,PAYLOAD,2022-04-15 04:32:51,15.4027925,0.0001534,53.2134,76.1711,25.8681,334.2401,-0.0094217,-0.00367585,0.0,0 STARLINK-3355,1 50808U 22001F   22105.18949074 -.00367585  00000-0 -94217-2 0  9999,2 50808  53.2134  76.1711 0001534  25.8681 334.2401 15.40279250 16714,6823.420999999999,93.49,446.333,444.24,0.0
50808.0,STARLINK-3355,PAYLOAD,2022-04-15 12:20:17,15.39783139,0.0001081,53.2137,74.6436,60.151,299.9603,-0.0095813,-0.00367691,0.0,0 STARLINK-3355,1 50808U 22001F   22105.51409492 -.00367691  00000-0 -95813-2 0  9992,2 50808  53.2137  74.6436 0001081  60.1510 299.9603 15.39783139 16764,6824.887,93.52,447.49,446.014,0.0
50808.0,STARLINK-3355,PAYLOAD,2022-04-15 14:00:01,15.39123057,0.000158,53.2174,74.3083,37.6045,346.3631,-0.019812,-0.00720397,0.0,0 STARLINK-3355,1 50808U 22001F   22105.58334491 -.00720397  00000-0 -19812-1 0  9995,2 50808  53.2174  74.3083 0001580  37.6045 346.3631 15.39123057  3677,6826.8380000000025,93.56,449.782,447.625,0.0
50808.0,STARLINK-3355,PAYLOAD,2022-04-15 20:00:01,15.38738016,0.0001643,53.2172,73.1316,38.4302,291.3495,-0.019942,-0.00716321,0.0,0 STARLINK-3355,1 50808U 22001F   22105.83334491 -.00716321  00000-0 -19942-1 0  9999,2 50808  53.2172  73.1316 0001643  38.4302 291.3495 15.38738016 16819,6827.977,93.583,450.964,448.72,0.0
50808.0,STARLINK-3355,PAYLOAD,2022-04-15 22:00:00,15.38611457,0.0001747,53.2174,72.74,35.398,36.2412,-0.020044,-0.00716959,0.0,0 STARLINK-3355,1 50808U 22001F   22105.91667824 -.00716959  00000-0 -20044-1 0  9999,2 50808  53.2174  72.7400 0001747  35.3980  36.2412 15.38611457  3655,6828.351,93.591,451.409,449.024,0.0
50808.0,STARLINK-3355,PAYLOAD,2022-04-16 14:00:01,15.37593053,0.0001854,53.2173,69.6096,38.161,126.9802,-0.020812,-0.00719787,0.0,0 STARLINK-3355,1 50808U 22001F   22106.58334491 -.00719787  00000-0 -20812-1 0  9999,2 50808  53.2173  69.6096 0001854  38.1610 126.9802 15.37593053  3672,6831.366,93.653,454.49800000000016,451.965,0.0
50808.0,STARLINK-3355,PAYLOAD,2022-04-16 22:00:01,15.37082466,0.0001938,53.2175,68.0453,37.0516,173.9863,-0.021098,-0.00717807,0.0,0 STARLINK-3355,1 50808U 22001F   22106.91668981 -.00717807  00000-0 -21098-1 0  9998,2 50808  53.2175  68.0453 0001938  37.0516 173.9863 15.37082466 16977,6832.879,93.684,456.068,453.42,0.0
50808.0,STARLINK-3355,PAYLOAD,2022-04-17 14:00:01,15.36064291,0.0001629999999999,53.2175,64.9219,42.0412,258.7583,-0.021946,-0.00722009,0.0,0 STARLINK-3355,1 50808U 22001F   22107.58334491 -.00722009  00000-0 -21946-1 0  9990,2 50808  53.2175  64.9219 0001630  42.0412 258.7583 15.36064291  3660,6835.898,93.746,458.877,456.649,0.0
50808.0,STARLINK-3355,PAYLOAD,2022-04-17 22:00:00,15.35433125,0.0001730999999999,53.217,63.3621,46.6909,298.1749,-0.017432,-0.00565559,0.0,0 STARLINK-3355,1 50808U 22001F   22107.91667824 -.00565559  00000-0 -17432-1 0  9996,2 50808  53.2170  63.3621 0001731  46.6909 298.1749 15.35433125 17132,6837.771,93.785,460.82,458.453,0.0
50808.0,STARLINK-3355,PAYLOAD,2022-04-18 06:00:00,15.35042997,0.0001784,53.2176,61.8043,34.4595,353.7146,-0.022602,-0.00719727,0.0,0 STARLINK-3355,1 50808U 22001F   22108.25001157 -.00719727  00000-0 -22602-1 0  9998,2 50808  53.2176  61.8043 0001784  34.4595 353.7146 15.35042997 17180,6838.93,93.808,462.015,459.575,0.0
50808.0,STARLINK-3355,PAYLOAD,2022-04-18 14:00:01,15.34532275,0.0001678,53.2175,60.2452,36.4832,34.4605,-0.022923,-0.00718201,0.0,0 STARLINK-3355,1 50808U 22001F   22108.58334491 -.00718201  00000-0 -22923-1 0  9996,2 50808  53.2175  60.2452 0001678  36.4832  34.4605 15.34532275  3667,6840.446999999999,93.84,463.46,461.164,0.0
50808.0,STARLINK-3355,PAYLOAD,2022-04-18 22:00:00,15.34021641,0.0001946,53.2177,58.6884,32.6154,80.4841,-0.023246,-0.00716696,0.0,0 STARLINK-3355,1 50808U 22001F   22108.91667824 -.00716696  00000-0 -23246-1 0  9997,2 50808  53.2177  58.6884 0001946  32.6154  80.4841 15.34021641  3665,6841.965,93.871,465.161,462.499,0.0
50808.0,STARLINK-3355,PAYLOAD,2022-04-19 14:00:01,15.33002756,0.0001736,53.2174,55.5791,44.2234,151.3483,-0.024064,-0.00718113,0.0,0 STARLINK-3355,1 50808U 22001F   22109.58334491 -.00718113  00000-0 -24064-1 0  9997,2 50808  53.2174  55.5791 0001736  44.2234 151.3483 15.33002756 17389,6844.996,93.933,468.05,465.673,0.0
